{
	"type": "FeatureCollection",
	"features": [{"geometry": {"type": "Polyline", "coordinates": [[30.3155372, 59.9367061], [30.3148378, 59.9367883], [30.3136451, 59.9369284], [30.3128319, 59.9370239], [30.3127517, 59.9370334], [30.312719, 59.937038], [30.3126874, 59.9370442], [30.3126741, 59.9370476], [30.3126571, 59.9370519], [30.3126284, 59.9370609], [30.3126015, 59.9370713], [30.3125767, 59.9370829], [30.3125542, 59.9370956], [30.3125342, 59.9371094], [30.3125169, 59.937124], [30.3125024, 59.9371394], [30.3124909, 59.9371554], [30.3124824, 59.9371718], [30.3124771, 59.9371886], [30.312475, 59.9372056], [30.3124761, 59.9372226], [30.3124804, 59.9372395]]}, "type": "Feature", "properties": {"REF": null, "NAME": "Невский проспект", "ONEWAY": "yes", "BRIGDE": null, "LANES": "2", "MAXSPEED": "RU:urban", "OSM_ID": "150362983", "HIGHWAY": "primary", "TUNNEL": null, "WIDTH": null, "SURFACE": "asphalt"}}, {"geometry": {"type": "Polyline", "coordinates": [[30.3122811, 59.9372941], [30.3122635, 59.9372441], [30.3122579, 59.9372221], [30.3122564, 59.9371989], [30.3122593, 59.9371758], [30.3122666, 59.9371529], [30.3122781, 59.9371305], [30.3122938, 59.9371087], [30.3123135, 59.9370877], [30.3123371, 59.9370678], [30.3123644, 59.937049], [30.312395, 59.9370317], [30.3124289, 59.9370159], [30.3124655, 59.9370018], [30.3125047, 59.9369894], [30.3125459, 59.936979], [30.312589, 59.9369706], [30.3126318, 59.9369644]]}, "type": "Feature", "properties": {"REF": null, "NAME": "Невский проспект", "ONEWAY": "yes", "BRIGDE": null, "LANES": "2", "MAXSPEED": "RU:urban", "OSM_ID": "150184631", "HIGHWAY": "primary", "TUNNEL": null, "WIDTH": null, "SURFACE": "asphalt"}}, {"geometry": {"type": "Polyline", "coordinates": [[30.3836813, 59.9241476], [30.3841208, 59.9239903], [30.3845031, 59.9238535], [30.3845491, 59.9238364], [30.3845937, 59.9238183], [30.3846368, 59.9237993], [30.3846784, 59.9237795], [30.3847184, 59.9237589], [30.3847566, 59.9237375], [30.3847932, 59.9237153], [30.3848279, 59.9236925], [30.3848656, 59.9236666], [30.3850011, 59.9235736], [30.3850592, 59.9235355], [30.3851363, 59.9234936]]}, "type": "Feature", "properties": {"REF": null, "NAME": "Невский проспект", "ONEWAY": "yes", "BRIGDE": null, "LANES": "3", "MAXSPEED": "RU:urban", "OSM_ID": "301738020", "HIGHWAY": "primary", "TUNNEL": null, "WIDTH": null, "SURFACE": "asphalt"}}, {"geometry": {"type": "Polyline", "coordinates": [[30.3609155, 59.931149], [30.3608599, 59.9311468], [30.3608192, 59.9311458], [30.3607784, 59.9311456], [30.3607377, 59.9311465], [30.3606971, 59.9311482], [30.3606567, 59.9311509], [30.3606165, 59.9311545], [30.3605768, 59.9311589], [30.3605392, 59.9311636], [30.3599543, 59.9312359], [30.3589259, 59.9313622], [30.3587548, 59.931386]]}, "type": "Feature", "properties": {"REF": null, "NAME": "Невский проспект", "ONEWAY": "yes", "BRIGDE": null, "LANES": "4", "MAXSPEED": "RU:urban", "OSM_ID": "143519856", "HIGHWAY": "primary", "TUNNEL": null, "WIDTH": null, "SURFACE": "asphalt"}}, {"geometry": {"type": "Polyline", "coordinates": [[30.3618669, 59.9307383], [30.3626314, 59.9307521], [30.3627069, 59.9307528], [30.3627823, 59.9307521], [30.3628576, 59.9307502], [30.3629327, 59.9307469], [30.3630076, 59.9307423], [30.363082, 59.9307364], [30.3631561, 59.9307292], [30.3632296, 59.9307207], [30.3632726, 59.9307153], [30.3650535, 59.9304926], [30.365557, 59.9304296]]}, "type": "Feature", "properties": {"REF": null, "NAME": "Невский проспект", "ONEWAY": "yes", "BRIGDE": null, "LANES": "1", "MAXSPEED": "RU:urban", "OSM_ID": "143519877", "HIGHWAY": "residential", "TUNNEL": null, "WIDTH": null, "SURFACE": "asphalt"}}, {"geometry": {"type": "Polyline", "coordinates": [[30.3854283, 59.9238087], [30.3852898, 59.9238094], [30.3851522, 59.9238177], [30.3850174, 59.9238336], [30.3848869, 59.9238569], [30.3847623, 59.9238872], [30.3846502, 59.9239234], [30.3846212, 59.9239327], [30.3842861, 59.9240526], [30.3839115, 59.9241889], [30.3826145, 59.9246508]]}, "type": "Feature", "properties": {"REF": null, "NAME": "Невский проспект", "ONEWAY": "yes", "BRIGDE": null, "LANES": "3", "MAXSPEED": "RU:urban", "OSM_ID": "143874144", "HIGHWAY": "primary", "TUNNEL": null, "WIDTH": null, "SURFACE": "asphalt"}}, {"geometry": {"type": "Polyline", "coordinates": [[30.3428478, 59.9333719], [30.3427743, 59.9333811], [30.3424474, 59.9334217], [30.3409985, 59.9336016], [30.3387584, 59.9338799], [30.3381996, 59.9339493], [30.3374784, 59.9340389], [30.3373775, 59.9340514], [30.3369583, 59.9341035], [30.3366906, 59.9341367]]}, "type": "Feature", "properties": {"REF": null, "NAME": "Невский проспект", "ONEWAY": "yes", "BRIGDE": null, "LANES": "4", "MAXSPEED": "RU:urban", "OSM_ID": "143519857", "HIGHWAY": "primary", "TUNNEL": null, "WIDTH": null, "SURFACE": "asphalt"}}, {"geometry": {"type": "Polyline", "coordinates": [[30.3691685, 59.929418], [30.3690296, 59.9294677], [30.3688985, 59.9295146], [30.3678763, 59.9298803], [30.3678377, 59.9298941], [30.3674419, 59.9300357], [30.367376, 59.9300593], [30.3670461, 59.9301774], [30.3666132, 59.9303322], [30.3665038, 59.9303714]]}, "type": "Feature", "properties": {"REF": null, "NAME": "Невский проспект", "ONEWAY": "yes", "BRIGDE": null, "LANES": "3", "MAXSPEED": "RU:urban", "OSM_ID": "160338253", "HIGHWAY": "primary", "TUNNEL": null, "WIDTH": null, "SURFACE": "asphalt"}}, {"geometry": {"type": "Polyline", "coordinates": [[30.3478944, 59.9327451], [30.3475551, 59.9327873], [30.3469611, 59.932861], [30.3467779, 59.9328838], [30.3466207, 59.9329033], [30.3460986, 59.9329682], [30.3455346, 59.9330382], [30.3442713, 59.9331931], [30.3440136, 59.9332271]]}, "type": "Feature", "properties": {"REF": null, "NAME": "Невский проспект", "ONEWAY": "yes", "BRIGDE": null, "LANES": "4", "MAXSPEED": "RU:urban", "OSM_ID": "143519872", "HIGHWAY": "primary", "TUNNEL": null, "WIDTH": null, "SURFACE": "asphalt"}}, {"geometry": {"type": "Polyline", "coordinates": [[30.347879, 59.9326267], [30.3481345, 59.9325949], [30.3491903, 59.9324633], [30.3494834, 59.9324268], [30.3497869, 59.9323889], [30.3522207, 59.9320856], [30.3528308, 59.9320096], [30.3534148, 59.9319368], [30.3537327, 59.931899]]}, "type": "Feature", "properties": {"REF": null, "NAME": "Невский проспект", "ONEWAY": "yes", "BRIGDE": null, "LANES": "4", "MAXSPEED": "RU:urban", "OSM_ID": "143525651", "HIGHWAY": "primary", "TUNNEL": null, "WIDTH": null, "SURFACE": "asphalt"}}, {"geometry": {"type": "Polyline", "coordinates": [[30.3537895, 59.9320053], [30.3526006, 59.9321565], [30.3513884, 59.9323081], [30.350738, 59.9323895], [30.3497724, 59.9325102], [30.349467, 59.9325484], [30.3490965, 59.9325948], [30.3481549, 59.9327125], [30.3478944, 59.9327451]]}, "type": "Feature", "properties": {"REF": null, "NAME": "Невский проспект", "ONEWAY": "yes", "BRIGDE": null, "LANES": "4", "MAXSPEED": "RU:urban", "OSM_ID": "181344171", "HIGHWAY": "primary", "TUNNEL": null, "WIDTH": null, "SURFACE": "asphalt"}}, {"geometry": {"type": "Polyline", "coordinates": [[30.3587548, 59.931386], [30.3580475, 59.9314752], [30.35778, 59.9315087], [30.3573842, 59.9315582], [30.3568686, 59.9316227], [30.3564199, 59.9316788], [30.356068, 59.9317228], [30.3559444, 59.9317383], [30.3557046, 59.9317683]]}, "type": "Feature", "properties": {"REF": null, "NAME": "Невский проспект", "ONEWAY": "yes", "BRIGDE": null, "LANES": "4", "MAXSPEED": "RU:urban", "OSM_ID": "277213980", "HIGHWAY": "primary", "TUNNEL": null, "WIDTH": null, "SURFACE": "asphalt"}}, {"geometry": {"type": "Polyline", "coordinates": [[30.3714474, 59.9285367], [30.3722108, 59.9282743], [30.3723398, 59.9282281], [30.3730444, 59.927976], [30.3731326, 59.9279444], [30.3756076, 59.9270588], [30.3772208, 59.9264693], [30.3772897, 59.9264441], [30.3785868, 59.9259743]]}, "type": "Feature", "properties": {"REF": null, "NAME": "Невский проспект", "ONEWAY": "yes", "BRIGDE": null, "LANES": "2", "MAXSPEED": "RU:urban", "OSM_ID": "143818842", "HIGHWAY": "primary", "TUNNEL": null, "WIDTH": null, "SURFACE": "asphalt"}}, {"geometry": {"type": "Polyline", "coordinates": [[30.3200124, 59.9360784], [30.3207079, 59.9359925], [30.321639, 59.9358775], [30.3218127, 59.935856], [30.3220445, 59.9358269], [30.3221588, 59.9358132], [30.3227686, 59.9357378], [30.3240027, 59.9355855]]}, "type": "Feature", "properties": {"REF": null, "NAME": "Невский проспект", "ONEWAY": "yes", "BRIGDE": null, "LANES": "4", "MAXSPEED": "RU:urban", "OSM_ID": "143525643", "HIGHWAY": "primary", "TUNNEL": null, "WIDTH": null, "SURFACE": "asphalt"}}, {"geometry": {"type": "Polyline", "coordinates": [[30.3623183, 59.9310608], [30.3621653, 59.9311085], [30.3621039, 59.931126], [30.3620399, 59.931141], [30.3619738, 59.9311535], [30.361906, 59.9311633], [30.3618368, 59.9311704], [30.3617667, 59.9311748]]}, "type": "Feature", "properties": {"REF": null, "NAME": "Невский проспект", "ONEWAY": "yes", "BRIGDE": null, "LANES": "5", "MAXSPEED": "RU:urban", "OSM_ID": "143519871", "HIGHWAY": "primary", "TUNNEL": null, "WIDTH": null, "SURFACE": "asphalt"}}, {"geometry": {"type": "Polyline", "coordinates": [[30.3438724, 59.9331244], [30.3439478, 59.933115], [30.3442134, 59.93308], [30.3461342, 59.9328434], [30.3468459, 59.932755], [30.3475437, 59.9326684], [30.347879, 59.9326267]]}, "type": "Feature", "properties": {"REF": null, "NAME": "Невский проспект", "ONEWAY": "yes", "BRIGDE": null, "LANES": "4", "MAXSPEED": "RU:urban", "OSM_ID": "143525649", "HIGHWAY": "primary", "TUNNEL": null, "WIDTH": null, "SURFACE": "asphalt"}}, {"geometry": {"type": "Polyline", "coordinates": [[30.3633009, 59.9307719], [30.3632615, 59.9307769], [30.3632188, 59.9307836], [30.3631982, 59.930788], [30.3631812, 59.9307926], [30.3631588, 59.9307986], [30.3623183, 59.9310608]]}, "type": "Feature", "properties": {"REF": null, "NAME": "Невский проспект", "ONEWAY": "yes", "BRIGDE": null, "LANES": "5", "MAXSPEED": "RU:urban", "OSM_ID": "143519870", "HIGHWAY": "primary", "TUNNEL": null, "WIDTH": null, "SURFACE": "asphalt"}}, {"geometry": {"type": "Polyline", "coordinates": [[30.3305191, 59.9349021], [30.3293873, 59.9350415], [30.3282331, 59.9351837], [30.3268733, 59.9353512], [30.3266871, 59.9353741], [30.3265507, 59.9353909]]}, "type": "Feature", "properties": {"REF": null, "NAME": "Невский проспект", "ONEWAY": "yes", "BRIGDE": null, "LANES": "4", "MAXSPEED": "RU:urban", "OSM_ID": "159746241", "HIGHWAY": "primary", "TUNNEL": null, "WIDTH": null, "SURFACE": "asphalt"}}, {"geometry": {"type": "Polyline", "coordinates": [[30.3306318, 59.9347661], [30.3318342, 59.9346175], [30.3322895, 59.9345613], [30.3329068, 59.934485], [30.3349382, 59.9342339], [30.3350704, 59.9342176]]}, "type": "Feature", "properties": {"REF": null, "NAME": "Невский проспект", "ONEWAY": "yes", "BRIGDE": null, "LANES": "4", "MAXSPEED": "RU:urban", "OSM_ID": "159746240", "HIGHWAY": "primary", "TUNNEL": null, "WIDTH": null, "SURFACE": "asphalt"}}, {"geometry": {"type": "Polyline", "coordinates": [[30.3381439, 59.9338359], [30.3386059, 59.9337785], [30.3391384, 59.9337124], [30.3408924, 59.9335005], [30.3423883, 59.9333087], [30.3427125, 59.9332684]]}, "type": "Feature", "properties": {"REF": null, "NAME": "Невский проспект", "ONEWAY": "yes", "BRIGDE": null, "LANES": "4", "MAXSPEED": "RU:urban", "OSM_ID": "143525639", "HIGHWAY": "primary", "TUNNEL": null, "WIDTH": null, "SURFACE": "asphalt"}}, {"geometry": {"type": "Polyline", "coordinates": [[30.3824995, 59.9245706], [30.38269, 59.9245024], [30.3831741, 59.9243291], [30.3832371, 59.9243066], [30.3834691, 59.9242236], [30.3836813, 59.9241476]]}, "type": "Feature", "properties": {"REF": null, "NAME": "Невский проспект", "ONEWAY": "yes", "BRIGDE": null, "LANES": "3", "MAXSPEED": "RU:urban", "OSM_ID": "143818835", "HIGHWAY": "primary", "TUNNEL": null, "WIDTH": null, "SURFACE": "asphalt"}}, {"geometry": {"type": "Polyline", "coordinates": [[30.3126318, 59.9369644], [30.3127951, 59.9369452], [30.3136008, 59.9368506], [30.3148009, 59.9367096], [30.3150735, 59.9366738]]}, "type": "Feature", "properties": {"REF": null, "NAME": "Невский проспект", "ONEWAY": "yes", "BRIGDE": null, "LANES": "2", "MAXSPEED": "RU:urban", "OSM_ID": "143519879", "HIGHWAY": "primary", "TUNNEL": null, "WIDTH": null, "SURFACE": "asphalt"}}, {"geometry": {"type": "Polyline", "coordinates": [[30.3350704, 59.9342176], [30.3350705, 59.9342176], [30.3363997, 59.9340518], [30.3374286, 59.9339247], [30.3381439, 59.9338359]]}, "type": "Feature", "properties": {"REF": null, "NAME": "Невский проспект", "ONEWAY": "yes", "BRIGDE": null, "LANES": "4", "MAXSPEED": "RU:urban", "OSM_ID": "143525648", "HIGHWAY": "primary", "TUNNEL": null, "WIDTH": null, "SURFACE": "asphalt"}}, {"geometry": {"type": "Polyline", "coordinates": [[30.3556347, 59.9316602], [30.3558854, 59.931629], [30.3567549, 59.9315206], [30.3571351, 59.9314732], [30.3581168, 59.9313509]]}, "type": "Feature", "properties": {"REF": null, "NAME": "Невский проспект", "ONEWAY": "yes", "BRIGDE": null, "LANES": "4", "MAXSPEED": "RU:urban", "OSM_ID": "143525645", "HIGHWAY": "primary", "TUNNEL": null, "WIDTH": null, "SURFACE": "asphalt"}}, {"geometry": {"type": "Polyline", "coordinates": [[30.3581168, 59.9313509], [30.3595859, 59.9311678], [30.360484, 59.9310542], [30.3606393, 59.9310263], [30.3608269, 59.9309673]]}, "type": "Feature", "properties": {"REF": null, "NAME": "Невский проспект", "ONEWAY": "yes", "BRIGDE": null, "LANES": "4", "MAXSPEED": "RU:urban", "OSM_ID": "262764313", "HIGHWAY": "primary", "TUNNEL": null, "WIDTH": null, "SURFACE": "asphalt"}}, {"geometry": {"type": "Polyline", "coordinates": [[30.365557, 59.9304296], [30.3664305, 59.9303204], [30.368488, 59.9295842], [30.3689582, 59.929416], [30.3690962, 59.9293666]]}, "type": "Feature", "properties": {"REF": null, "NAME": "Невский проспект", "ONEWAY": "yes", "BRIGDE": null, "LANES": "1", "MAXSPEED": "RU:urban", "OSM_ID": "143818833", "HIGHWAY": "residential", "TUNNEL": null, "WIDTH": null, "SURFACE": "asphalt"}}, {"geometry": {"type": "Polyline", "coordinates": [[30.3826145, 59.9246508], [30.3810752, 59.9252017], [30.3799552, 59.9256025], [30.3790323, 59.9259291], [30.3786193, 59.9260805]]}, "type": "Feature", "properties": {"REF": null, "NAME": "Невский проспект", "ONEWAY": "yes", "BRIGDE": null, "LANES": "3", "MAXSPEED": "RU:urban", "OSM_ID": "143818834", "HIGHWAY": "primary", "TUNNEL": null, "WIDTH": null, "SURFACE": "asphalt"}}, {"geometry": {"type": "Polyline", "coordinates": [[30.3117071, 59.9370731], [30.3118311, 59.9370585], [30.3123779, 59.9369942], [30.3126318, 59.9369644]]}, "type": "Feature", "properties": {"REF": null, "NAME": "Невский проспект", "ONEWAY": "yes", "BRIGDE": null, "LANES": "2", "MAXSPEED": "RU:urban", "OSM_ID": "145013001", "HIGHWAY": "secondary", "TUNNEL": null, "WIDTH": null, "SURFACE": "asphalt"}}, {"geometry": {"type": "Polyline", "coordinates": [[30.3220159, 59.9359511], [30.3218672, 59.9359695], [30.3213488, 59.9360335], [30.32006, 59.9361927]]}, "type": "Feature", "properties": {"REF": null, "NAME": "Невский проспект", "ONEWAY": "yes", "BRIGDE": null, "LANES": "4", "MAXSPEED": "RU:urban", "OSM_ID": "143519866", "HIGHWAY": "primary", "TUNNEL": null, "WIDTH": null, "SURFACE": "asphalt"}}, {"geometry": {"type": "Polyline", "coordinates": [[30.3240027, 59.9355855], [30.3247865, 59.9354886], [30.3258965, 59.9353514], [30.3262421, 59.9353087]]}, "type": "Feature", "properties": {"REF": null, "NAME": "Невский проспект", "ONEWAY": "yes", "BRIGDE": null, "LANES": "4", "MAXSPEED": "RU:urban", "OSM_ID": "143525636", "HIGHWAY": "primary", "TUNNEL": null, "WIDTH": null, "SURFACE": "asphalt"}}, {"geometry": {"type": "Polyline", "coordinates": [[30.3266406, 59.9352595], [30.3268173, 59.9352375], [30.3302217, 59.9348168], [30.3306318, 59.9347661]]}, "type": "Feature", "properties": {"REF": null, "NAME": "Невский проспект", "ONEWAY": "yes", "BRIGDE": null, "LANES": "4", "MAXSPEED": "RU:urban", "OSM_ID": "143525650", "HIGHWAY": "primary", "TUNNEL": null, "WIDTH": null, "SURFACE": "asphalt"}}, {"geometry": {"type": "Polyline", "coordinates": [[30.3351257, 59.934331], [30.3329314, 59.9346029], [30.331958, 59.9347217], [30.3305191, 59.9349021]]}, "type": "Feature", "properties": {"REF": null, "NAME": "Невский проспект", "ONEWAY": "yes", "BRIGDE": null, "LANES": "4", "MAXSPEED": "RU:urban", "OSM_ID": "143519869", "HIGHWAY": "primary", "TUNNEL": null, "WIDTH": null, "SURFACE": "asphalt"}}, {"geometry": {"type": "Polyline", "coordinates": [[30.3537327, 59.931899], [30.3539528, 59.9318714], [30.354536, 59.9317982], [30.3556347, 59.9316602]]}, "type": "Feature", "properties": {"REF": null, "NAME": "Невский проспект", "ONEWAY": "yes", "BRIGDE": null, "LANES": "4", "MAXSPEED": "RU:urban", "OSM_ID": "143525646", "HIGHWAY": "primary", "TUNNEL": null, "WIDTH": null, "SURFACE": "asphalt"}}, {"geometry": {"type": "Polyline", "coordinates": [[30.3557046, 59.9317683], [30.3554748, 59.9317967], [30.3540143, 59.9319775], [30.3537895, 59.9320053]]}, "type": "Feature", "properties": {"REF": null, "NAME": "Невский проспект", "ONEWAY": "yes", "BRIGDE": null, "LANES": "4", "MAXSPEED": "RU:urban", "OSM_ID": "262764311", "HIGHWAY": "primary", "TUNNEL": null, "WIDTH": null, "SURFACE": "asphalt"}}, {"geometry": {"type": "Polyline", "coordinates": [[30.3617667, 59.9311748], [30.3616961, 59.9311763], [30.3616255, 59.9311751], [30.3612086, 59.9311597]]}, "type": "Feature", "properties": {"REF": null, "NAME": "Невский проспект", "ONEWAY": "yes", "BRIGDE": null, "LANES": "5", "MAXSPEED": "RU:urban", "OSM_ID": "143519868", "HIGHWAY": "primary", "TUNNEL": null, "WIDTH": null, "SURFACE": "asphalt"}}, {"geometry": {"type": "Polyline", "coordinates": [[30.3715118, 59.9285901], [30.3712808, 59.9286714], [30.3705163, 59.9289416], [30.3691685, 59.929418]]}, "type": "Feature", "properties": {"REF": null, "NAME": "Невский проспект", "ONEWAY": "yes", "BRIGDE": null, "LANES": "3", "MAXSPEED": "RU:urban", "OSM_ID": "143818841", "HIGHWAY": "primary", "TUNNEL": null, "WIDTH": null, "SURFACE": "asphalt"}}, {"geometry": {"type": "Polyline", "coordinates": [[30.3789952, 59.9258246], [30.3795042, 59.9256424], [30.3816566, 59.9248722], [30.3824995, 59.9245706]]}, "type": "Feature", "properties": {"REF": null, "NAME": "Невский проспект", "ONEWAY": "yes", "BRIGDE": null, "LANES": "3", "MAXSPEED": "RU:urban", "OSM_ID": "145069796", "HIGHWAY": "primary", "TUNNEL": null, "WIDTH": null, "SURFACE": "asphalt"}}, {"geometry": {"type": "Polyline", "coordinates": [[30.3152715, 59.9366543], [30.3172601, 59.9364206], [30.3176082, 59.9363806]]}, "type": "Feature", "properties": {"REF": null, "NAME": "Невский проспект", "ONEWAY": "yes", "BRIGDE": null, "LANES": "3", "MAXSPEED": "RU:urban", "OSM_ID": "218481769", "HIGHWAY": "primary", "TUNNEL": null, "WIDTH": null, "SURFACE": "asphalt"}}, {"geometry": {"type": "Polyline", "coordinates": [[30.3175997, 59.9364658], [30.3172977, 59.936501], [30.3155372, 59.9367061]]}, "type": "Feature", "properties": {"REF": null, "NAME": "Невский проспект", "ONEWAY": "yes", "BRIGDE": null, "LANES": "3", "MAXSPEED": "RU:urban", "OSM_ID": "143519859", "HIGHWAY": "primary", "TUNNEL": null, "WIDTH": null, "SURFACE": "asphalt"}}, {"geometry": {"type": "Polyline", "coordinates": [[30.3193557, 59.9362574], [30.3192474, 59.9362701], [30.3175997, 59.9364658]]}, "type": "Feature", "properties": {"REF": null, "NAME": "Невский проспект", "ONEWAY": "yes", "BRIGDE": null, "LANES": "3", "MAXSPEED": "RU:urban", "OSM_ID": "143519863", "HIGHWAY": "primary", "TUNNEL": null, "WIDTH": null, "SURFACE": "asphalt"}}, {"geometry": {"type": "Polyline", "coordinates": [[30.3176082, 59.9363806], [30.3192104, 59.9361915], [30.319314, 59.9361793]]}, "type": "Feature", "properties": {"REF": null, "NAME": "Невский проспект", "ONEWAY": "yes", "BRIGDE": null, "LANES": "3", "MAXSPEED": "RU:urban", "OSM_ID": "143525637", "HIGHWAY": "primary", "TUNNEL": null, "WIDTH": null, "SURFACE": "asphalt"}}, {"geometry": {"type": "Polyline", "coordinates": [[30.3261723, 59.9354378], [30.3259522, 59.9354647], [30.3223068, 59.9359136]]}, "type": "Feature", "properties": {"REF": null, "NAME": "Невский проспект", "ONEWAY": "yes", "BRIGDE": null, "LANES": "4", "MAXSPEED": "RU:urban", "OSM_ID": "143519865", "HIGHWAY": "primary", "TUNNEL": null, "WIDTH": null, "SURFACE": "asphalt"}}, {"geometry": {"type": "Polyline", "coordinates": [[30.361081, 59.9308995], [30.361339, 59.9308355], [30.3614944, 59.9308069]]}, "type": "Feature", "properties": {"REF": null, "NAME": "Невский проспект", "ONEWAY": "yes", "BRIGDE": null, "LANES": "3", "MAXSPEED": "RU:urban", "OSM_ID": "143525644", "HIGHWAY": "primary", "TUNNEL": null, "WIDTH": null, "SURFACE": "asphalt"}}, {"geometry": {"type": "Polyline", "coordinates": [[30.3656552, 59.9304775], [30.3650819, 59.9305492], [30.3633009, 59.9307719]]}, "type": "Feature", "properties": {"REF": null, "NAME": "Невский проспект", "ONEWAY": "yes", "BRIGDE": null, "LANES": "3", "MAXSPEED": "RU:urban", "OSM_ID": "143519860", "HIGHWAY": "primary", "TUNNEL": null, "WIDTH": null, "SURFACE": "asphalt"}}, {"geometry": {"type": "Polyline", "coordinates": [[30.3665038, 59.9303714], [30.3664249, 59.9304382], [30.365886, 59.930631]]}, "type": "Feature", "properties": {"REF": null, "NAME": "Невский проспект", "ONEWAY": "yes", "BRIGDE": null, "LANES": "1", "MAXSPEED": "RU:urban", "OSM_ID": "143818836", "HIGHWAY": "secondary", "TUNNEL": null, "WIDTH": null, "SURFACE": "asphalt"}}, {"geometry": {"type": "Polyline", "coordinates": [[30.3690962, 59.9293666], [30.371198, 59.9286145], [30.3714474, 59.9285367]]}, "type": "Feature", "properties": {"REF": null, "NAME": "Невский проспект", "ONEWAY": "yes", "BRIGDE": null, "LANES": "1", "MAXSPEED": "RU:urban", "OSM_ID": "143818839", "HIGHWAY": "residential", "TUNNEL": null, "WIDTH": null, "SURFACE": "asphalt"}}, {"geometry": {"type": "Polyline", "coordinates": [[30.3732014, 59.9279971], [30.3724763, 59.9282559], [30.3715118, 59.9285901]]}, "type": "Feature", "properties": {"REF": null, "NAME": "Невский проспект", "ONEWAY": "yes", "BRIGDE": null, "LANES": "2", "MAXSPEED": "RU:urban", "OSM_ID": "160338252", "HIGHWAY": "primary", "TUNNEL": null, "WIDTH": null, "SURFACE": "asphalt"}}, {"geometry": {"type": "Polyline", "coordinates": [[30.3786193, 59.9260805], [30.3756812, 59.9271097], [30.3732014, 59.9279971]]}, "type": "Feature", "properties": {"REF": null, "NAME": "Невский проспект", "ONEWAY": "yes", "BRIGDE": null, "LANES": "2", "MAXSPEED": "RU:urban", "OSM_ID": "143818840", "HIGHWAY": "primary", "TUNNEL": null, "WIDTH": null, "SURFACE": "asphalt"}}, {"geometry": {"type": "Polyline", "coordinates": [[30.3124804, 59.9372395], [30.3125339, 59.9373914]]}, "type": "Feature", "properties": {"REF": null, "NAME": "Невский проспект", "ONEWAY": "yes", "BRIGDE": null, "LANES": "4", "MAXSPEED": "RU:urban", "OSM_ID": "331683978", "HIGHWAY": "primary", "TUNNEL": null, "WIDTH": null, "SURFACE": "asphalt"}}, {"geometry": {"type": "Polyline", "coordinates": [[30.3150735, 59.9366738], [30.3152715, 59.9366543]]}, "type": "Feature", "properties": {"REF": null, "NAME": "Невский проспект", "ONEWAY": "yes", "BRIGDE": null, "LANES": "3", "MAXSPEED": "RU:urban", "OSM_ID": "143525641", "HIGHWAY": "primary", "TUNNEL": null, "WIDTH": null, "SURFACE": "asphalt"}}, {"geometry": {"type": "Polyline", "coordinates": [[30.3223068, 59.9359136], [30.3220159, 59.9359511]]}, "type": "Feature", "properties": {"REF": null, "NAME": "Невский проспект", "ONEWAY": null, "BRIGDE": null, "LANES": "4", "MAXSPEED": "RU:urban", "OSM_ID": "181174481", "HIGHWAY": "primary", "TUNNEL": null, "WIDTH": null, "SURFACE": "asphalt"}}, {"geometry": {"type": "Polyline", "coordinates": [[30.3262841, 59.9354238], [30.3261723, 59.9354378]]}, "type": "Feature", "properties": {"REF": null, "NAME": "Невский проспект", "ONEWAY": "yes", "BRIGDE": null, "LANES": "4", "MAXSPEED": "RU:urban", "OSM_ID": "243947047", "HIGHWAY": "primary", "TUNNEL": null, "WIDTH": null, "SURFACE": "asphalt"}}, {"geometry": {"type": "Polyline", "coordinates": [[30.326508, 59.9352759], [30.3266406, 59.9352595]]}, "type": "Feature", "properties": {"REF": null, "NAME": "Невский проспект", "ONEWAY": "yes", "BRIGDE": null, "LANES": "4", "MAXSPEED": "RU:urban", "OSM_ID": "243947049", "HIGHWAY": "primary", "TUNNEL": null, "WIDTH": null, "SURFACE": "asphalt"}}, {"geometry": {"type": "Polyline", "coordinates": [[30.3366906, 59.9341367], [30.3351257, 59.934331]]}, "type": "Feature", "properties": {"REF": null, "NAME": "Невский проспект", "ONEWAY": "yes", "BRIGDE": null, "LANES": "4", "MAXSPEED": "RU:urban", "OSM_ID": "333880669", "HIGHWAY": "primary", "TUNNEL": null, "WIDTH": null, "SURFACE": "asphalt"}}, {"geometry": {"type": "Polyline", "coordinates": [[30.3427125, 59.9332684], [30.3427857, 59.9332593]]}, "type": "Feature", "properties": {"REF": null, "NAME": "Невский проспект", "ONEWAY": "yes", "BRIGDE": null, "LANES": "4", "MAXSPEED": "RU:urban", "OSM_ID": "143525640", "HIGHWAY": "primary", "TUNNEL": null, "WIDTH": null, "SURFACE": "asphalt"}}, {"geometry": {"type": "Polyline", "coordinates": [[30.3440136, 59.9332271], [30.343925, 59.9332382]]}, "type": "Feature", "properties": {"REF": null, "NAME": "Невский проспект", "ONEWAY": "yes", "BRIGDE": null, "LANES": "4", "MAXSPEED": "RU:urban", "OSM_ID": "143519858", "HIGHWAY": "primary", "TUNNEL": null, "WIDTH": null, "SURFACE": "asphalt"}}, {"geometry": {"type": "Polyline", "coordinates": [[30.3608269, 59.9309673], [30.361081, 59.9308995]]}, "type": "Feature", "properties": {"REF": null, "NAME": "Невский проспект", "ONEWAY": "yes", "BRIGDE": null, "LANES": "3", "MAXSPEED": "RU:urban", "OSM_ID": "145044900", "HIGHWAY": "primary", "TUNNEL": null, "WIDTH": null, "SURFACE": "asphalt"}}, {"geometry": {"type": "Polyline", "coordinates": [[30.3612086, 59.9311597], [30.3609155, 59.931149]]}, "type": "Feature", "properties": {"REF": null, "NAME": "Невский проспект", "ONEWAY": "yes", "BRIGDE": null, "LANES": "5", "MAXSPEED": "RU:urban", "OSM_ID": "143519862", "HIGHWAY": "primary", "TUNNEL": null, "WIDTH": null, "SURFACE": "asphalt"}}, {"geometry": {"type": "Polyline", "coordinates": [[30.3614944, 59.9308069], [30.3618669, 59.9307383]]}, "type": "Feature", "properties": {"REF": null, "NAME": "Невский проспект", "ONEWAY": "yes", "BRIGDE": null, "LANES": "3", "MAXSPEED": "RU:urban", "OSM_ID": "143525638", "HIGHWAY": "primary", "TUNNEL": null, "WIDTH": null, "SURFACE": "asphalt"}}, {"geometry": {"type": "Polyline", "coordinates": [[30.3665038, 59.9303714], [30.3656552, 59.9304775]]}, "type": "Feature", "properties": {"REF": null, "NAME": "Невский проспект", "ONEWAY": "yes", "BRIGDE": null, "LANES": "3", "MAXSPEED": "RU:urban", "OSM_ID": "143519861", "HIGHWAY": "primary", "TUNNEL": null, "WIDTH": null, "SURFACE": "asphalt"}}, {"geometry": {"type": "Polyline", "coordinates": [[30.3785868, 59.9259743], [30.3789952, 59.9258246]]}, "type": "Feature", "properties": {"REF": null, "NAME": "Невский проспект", "ONEWAY": "yes", "BRIGDE": null, "LANES": "3", "MAXSPEED": "RU:urban", "OSM_ID": "239914944", "HIGHWAY": "primary", "TUNNEL": null, "WIDTH": null, "SURFACE": "asphalt"}}]
}